IRIDIUM 26              
1 24903U 97043A   25301.37704225  .00000691  00000+0  22552-3 0  9996
2 24903  86.3964  54.6201 0002099  87.7826 272.3612 14.37269405475877
IRIDIUM 22              
1 24907U 97043E   25301.41741125  .00000619  00000+0  20627-3 0  9996
2 24907  86.3963  58.2580 0001968  91.7570 268.3852 14.36069086475890
DUMMY MASS 1            
1 24925U 97048A   25301.38682883  .00000758  00000+0  81241-4 0  9996
2 24925  86.3324  73.6898 0008179  47.9776 312.2144 14.87117851524928
DUMMY MASS 2            
1 24926U 97048B   25301.43850884  .00000758  00000+0  81755-4 0  9991
2 24926  86.3322  75.2992 0009240  56.1243 304.0860 14.86868654524704
IRIDIUM 29              
1 24944U 97051A   25301.46200845  .00000767  00000+0  25423-3 0  9993
2 24944  86.3916  87.9558 0001969  95.9756 264.1666 14.36595467472404
IRIDIUM 33              
1 24946U 97051C   25301.45179095  .00000567  00000+0  19235-3 0  9998
2 24946  86.3832  87.2324 0008213  17.9582 342.1903 14.34986016471858
IRIDIUM 28              
1 24948U 97051E   25301.49060689  .00000703  00000+0  22828-3 0  9996
2 24948  86.3924  85.3815 0002179  76.5287 283.6154 14.37500468472993
IRIDIUM 36              
1 24967U 97056C   25301.50262304  .00000649  00000+0  20943-3 0  9997
2 24967  86.3926 117.0109 0001924  82.5475 277.5941 14.37720538471377
